*******************************************************************************
Ephemeris / WWW_USER Mon Jul 15 19:13:18 2024 Pasadena, USA      / Horizons    
*******************************************************************************
Target body name: (2018 VS1)                      {source: JPL#4}
Center body name: Earth (399)                     {source: DE441}
Center-site name: Gemini South Obs., Cerro Pachon
*******************************************************************************
Start time      : A.D. 2018-Nov-21 23:31:00.0000 UT      
Stop  time      : A.D. 2018-Nov-22 09:26:00.0000 UT      
Step-size       : 1 minutes
*******************************************************************************
Target pole/equ : undefined
Target radii    : undefined                                                    
Center geodetic : 289.2634, -30.2406227, 2.71233  {E-lon(deg),Lat(deg),Alt(km)}
Center cylindric: 289.2634,5517.21435,-3194.81213 {E-lon(deg),Dxy(km),Dz(km)}
Center pole/equ : ITRF93                          {East-longitude positive}
Center radii    : 6378.137, 6378.137, 6356.752 km {Equator_a, b, pole_c}       
Target primary  : Sun
Vis. interferer : MOON (R_eq= 1737.400) km        {source: DE441}
Rel. light bend : Sun                             {source: DE441}
Rel. lght bnd GM: 1.3271E+11 km^3/s^2                                          
Small-body perts: Yes                             {source: SB441-N16}
Atmos refraction: NO (AIRLESS)
RA format       : HMS
Time format     : CAL 
Calendar mode   : Mixed Julian/Gregorian
RTS-only print  : NO       
EOP file        : eop.240715.p241008                                           
EOP coverage    : DATA-BASED 1962-JAN-20 TO 2024-JUL-15. PREDICTS-> 2024-OCT-07
Units conversion: 1 au= 149597870.700 km, c= 299792.458 km/s, 1 day= 86400.0 s 
Table cut-offs 1: Elevation (-90.0deg=NO ),Airmass (>38.000=NO), Daylight (YES)
Table cut-offs 2: Solar elongation (  0.0,180.0=NO ),Local Hour Angle( 0.0=NO )
Table cut-offs 3: RA/DEC angular rate (     0.0=NO )                           
*******************************************************************************
Initial IAU76/J2000 heliocentric ecliptic osculating elements (au, days, deg.):
  EPOCH=  2458427.5 ! 2018-Nov-05.00 (TDB)         Residual RMS= .21634        
   EC= .3907275528854954   QR= .7806320880190512   TP= 2458486.1030618688      
   OM= 55.95483604725189   W=  67.17004921097404   IN= 3.601110299269385       
  Equivalent ICRF heliocentric cartesian coordinates (au, au/d):
   X= 7.595935200506908E-01  Y= 6.354459268576240E-01  Z= 2.586666727482118E-01
  VX=-1.643099138746886E-02 VY= 7.530892270769961E-03 VZ= 4.533522122669557E-03
Asteroid physical parameters (km, seconds, rotational period in hours):        
   GM= n.a.                RAD= n.a.               ROTPER= n.a.                
   H= 26.6                 G= .150                 B-V= n.a.                   
                           ALBEDO= n.a.            STYP= n.a.                  
*******************************************************************************
 Date__(UT)__HR:MN     R.A._________(ICRF)_________DEC
******************************************************
$$SOE
 2018-Nov-22 07:43  m  14 46 38.504435 -11 33 56.54493
 2018-Nov-22 07:44  m  14 46 38.530092 -11 33 55.16173
 2018-Nov-22 07:45  m  14 46 38.555627 -11 33 53.77887
 2018-Nov-22 07:46  m  14 46 38.581038 -11 33 52.39636
 2018-Nov-22 07:47  m  14 46 38.606325 -11 33 51.01419
 2018-Nov-22 07:48  m  14 46 38.631489 -11 33 49.63236
 2018-Nov-22 07:49  m  14 46 38.656528 -11 33 48.25087
 2018-Nov-22 07:50  m  14 46 38.681444 -11 33 46.86971
 2018-Nov-22 07:51  m  14 46 38.706235 -11 33 45.48889
 2018-Nov-22 07:52  m  14 46 38.730901 -11 33 44.10841
 2018-Nov-22 07:53  m  14 46 38.755442 -11 33 42.72825
 2018-Nov-22 07:54  m  14 46 38.779858 -11 33 41.34843
 2018-Nov-22 07:55  m  14 46 38.804149 -11 33 39.96893
 2018-Nov-22 07:56  m  14 46 38.828314 -11 33 38.58976
 2018-Nov-22 07:57  m  14 46 38.852354 -11 33 37.21092
 2018-Nov-22 07:58  m  14 46 38.876267 -11 33 35.83240
 2018-Nov-22 07:59  m  14 46 38.900055 -11 33 34.45420
 2018-Nov-22 08:00  m  14 46 38.923716 -11 33 33.07632
 2018-Nov-22 08:01  m  14 46 38.947250 -11 33 31.69876
 2018-Nov-22 08:02  m  14 46 38.970658 -11 33 30.32152
 2018-Nov-22 08:03  m  14 46 38.993939 -11 33 28.94459
 2018-Nov-22 08:04 Am  14 46 39.017093 -11 33 27.56797
 2018-Nov-22 08:05 Am  14 46 39.040120 -11 33 26.19167
 2018-Nov-22 08:06 Am  14 46 39.063019 -11 33 24.81567
 2018-Nov-22 08:07 Am  14 46 39.085790 -11 33 23.43999
 2018-Nov-22 08:08 Am  14 46 39.108434 -11 33 22.06461
 2018-Nov-22 08:09 Am  14 46 39.130950 -11 33 20.68953
 2018-Nov-22 08:10 Am  14 46 39.153337 -11 33 19.31476
 2018-Nov-22 08:11 Am  14 46 39.175596 -11 33 17.94029
 2018-Nov-22 08:12 Am  14 46 39.197727 -11 33 16.56612
 2018-Nov-22 08:13 Am  14 46 39.219729 -11 33 15.19224
 2018-Nov-22 08:14 Am  14 46 39.241602 -11 33 13.81867
 2018-Nov-22 08:15 Am  14 46 39.263347 -11 33 12.44538
 2018-Nov-22 08:16 Am  14 46 39.284962 -11 33 11.07239
 2018-Nov-22 08:17 Am  14 46 39.306448 -11 33 09.69969
 2018-Nov-22 08:18 Am  14 46 39.327804 -11 33 08.32728
 2018-Nov-22 08:19 Am  14 46 39.349031 -11 33 06.95516
 2018-Nov-22 08:20 Am  14 46 39.370128 -11 33 05.58332
 2018-Nov-22 08:21 Am  14 46 39.391095 -11 33 04.21177
 2018-Nov-22 08:22 Am  14 46 39.411933 -11 33 02.84050
 2018-Nov-22 08:23 Am  14 46 39.432640 -11 33 01.46951
 2018-Nov-22 08:24 Am  14 46 39.453216 -11 33 00.09880
 2018-Nov-22 08:25 Am  14 46 39.473663 -11 32 58.72836
 2018-Nov-22 08:26 Am  14 46 39.493979 -11 32 57.35821
 2018-Nov-22 08:27 Am  14 46 39.514164 -11 32 55.98832
 2018-Nov-22 08:28 Am  14 46 39.534218 -11 32 54.61871
 2018-Nov-22 08:29 Am  14 46 39.554141 -11 32 53.24936
 2018-Nov-22 08:30 Am  14 46 39.573934 -11 32 51.88029
 2018-Nov-22 08:31 Am  14 46 39.593595 -11 32 50.51148
 2018-Nov-22 08:32 Am  14 46 39.613125 -11 32 49.14294
 2018-Nov-22 08:33 Am  14 46 39.632523 -11 32 47.77466
 2018-Nov-22 08:34 Am  14 46 39.651790 -11 32 46.40664
 2018-Nov-22 08:35 Am  14 46 39.670925 -11 32 45.03888
 2018-Nov-22 08:36 Am  14 46 39.689929 -11 32 43.67138
 2018-Nov-22 08:37 Nm  14 46 39.708801 -11 32 42.30413
 2018-Nov-22 08:38 Nm  14 46 39.727541 -11 32 40.93714
 2018-Nov-22 08:39 Nm  14 46 39.746148 -11 32 39.57040
 2018-Nov-22 08:40 Nm  14 46 39.764624 -11 32 38.20391
 2018-Nov-22 08:41 Nm  14 46 39.782967 -11 32 36.83768
 2018-Nov-22 08:42 Nm  14 46 39.801179 -11 32 35.47169
 2018-Nov-22 08:43 Nm  14 46 39.819257 -11 32 34.10594
 2018-Nov-22 08:44 Nm  14 46 39.837204 -11 32 32.74044
 2018-Nov-22 08:45 Nm  14 46 39.855017 -11 32 31.37518
 2018-Nov-22 08:46 Nm  14 46 39.872698 -11 32 30.01016
 2018-Nov-22 08:47 Nm  14 46 39.890247 -11 32 28.64538
 2018-Nov-22 08:48 Nr  14 46 39.907662 -11 32 27.28084
 2018-Nov-22 08:49 Nm  14 46 39.924945 -11 32 25.91653
 2018-Nov-22 08:50 Nm  14 46 39.942094 -11 32 24.55245
 2018-Nov-22 08:51 Nm  14 46 39.959111 -11 32 23.18861
 2018-Nov-22 08:52 Nm  14 46 39.975995 -11 32 21.82500
 2018-Nov-22 08:53 Nm  14 46 39.992745 -11 32 20.46161
 2018-Nov-22 08:54 Nm  14 46 40.009362 -11 32 19.09845
 2018-Nov-22 08:55 Nm  14 46 40.025846 -11 32 17.73551
 2018-Nov-22 08:56 Nm  14 46 40.042197 -11 32 16.37280
 2018-Nov-22 08:57 Nm  14 46 40.058414 -11 32 15.01031
 2018-Nov-22 08:58 Nm  14 46 40.074498 -11 32 13.64804
 2018-Nov-22 08:59 Nm  14 46 40.090448 -11 32 12.28598
 2018-Nov-22 09:00 Nm  14 46 40.106265 -11 32 10.92414
 2018-Nov-22 09:01 Nm  14 46 40.121949 -11 32 09.56252
 2018-Nov-22 09:02 Nm  14 46 40.137498 -11 32 08.20111
 2018-Nov-22 09:03 Nm  14 46 40.152914 -11 32 06.83990
 2018-Nov-22 09:04 Nm  14 46 40.168197 -11 32 05.47891
 2018-Nov-22 09:05 Nm  14 46 40.183346 -11 32 04.11812
 2018-Nov-22 09:06 Nm  14 46 40.198361 -11 32 02.75754
 2018-Nov-22 09:07 Nm  14 46 40.213242 -11 32 01.39716
 2018-Nov-22 09:08 Nm  14 46 40.227989 -11 32 00.03698
 2018-Nov-22 09:09 Cm  14 46 40.242603 -11 31 58.67701
 2018-Nov-22 09:10 Cm  14 46 40.257083 -11 31 57.31723
 2018-Nov-22 09:11 Cm  14 46 40.271429 -11 31 55.95764
 2018-Nov-22 09:12 Cm  14 46 40.285641 -11 31 54.59825
 2018-Nov-22 09:13 Cm  14 46 40.299720 -11 31 53.23906
 2018-Nov-22 09:14 Cm  14 46 40.313664 -11 31 51.88005
 2018-Nov-22 09:15 Cm  14 46 40.327475 -11 31 50.52124
 2018-Nov-22 09:16 Cm  14 46 40.341151 -11 31 49.16261
 2018-Nov-22 09:17 Cm  14 46 40.354694 -11 31 47.80416
 2018-Nov-22 09:18 Cm  14 46 40.368103 -11 31 46.44591
 2018-Nov-22 09:19 Cm  14 46 40.381378 -11 31 45.08783
 2018-Nov-22 09:20 Cm  14 46 40.394519 -11 31 43.72993
 2018-Nov-22 09:21 Cm  14 46 40.407527 -11 31 42.37221
 2018-Nov-22 09:22 Cm  14 46 40.420400 -11 31 41.01467
 2018-Nov-22 09:23 Cm  14 46 40.433140 -11 31 39.65731
 2018-Nov-22 09:24 Cm  14 46 40.445746 -11 31 38.30011
 2018-Nov-22 09:25 Cm  14 46 40.458218 -11 31 36.94309
 2018-Nov-22 09:26 Cm  14 46 40.470556 -11 31 35.58624
